#cP2023  3  6  0  0  0.00000000      96 ORBIT IGS20 HLM  IGS
## 2252  86400.00000000   900.00000000 60009 0.0000000000000
+   32   G01G02G03G04G05G06G07G08G09G10G11G12G13G14G15G16G17
+        G18G19G20G21G22G23G24G25G26G27G28G29G30G31G32  0  0
+          0  0  0  0  0  0  0  0  0  0  0  0  0  0  0  0  0
+          0  0  0  0  0  0  0  0  0  0  0  0  0  0  0  0  0
+          0  0  0  0  0  0  0  0  0  0  0  0  0  0  0  0  0
++         2  2  2  3  2  2  2  2  2  2  2  2  3  2  2  2  2
++         2  2  2  2  3  2  2  2  2  2  3  2  2  2  2  0  0
++         0  0  0  0  0  0  0  0  0  0  0  0  0  0  0  0  0
++         0  0  0  0  0  0  0  0  0  0  0  0  0  0  0  0  0
++         0  0  0  0  0  0  0  0  0  0  0  0  0  0  0  0  0
%c G  cc GPS ccc cccc cccc cccc cccc ccccc ccccc ccccc ccccc
%c cc cc ccc ccc cccc cccc cccc cccc ccccc ccccc ccccc ccccc
%f  1.2500000  1.025000000  0.00000000000  0.000000000000000
%f  0.0000000  0.000000000  0.00000000000  0.000000000000000
%i    0    0    0    0      0      0      0      0         0
%i    0    0    0    0      0      0      0      0         0
/* RAPID ORBIT COMBINATION FROM WEIGHTED AVERAGE OF:        
/* cod emr esa gfz grg jpl ngs sio usn whu                  
/* REFERENCED TO IGS TIME (IGST) AND TO WEIGHTED MEAN POLE: 
/* PCV:IGS20_2233 OL/AL:FES2014b NONE     Y  ORB:CMB CLK:CMB
*  2023  3  6  0  0  0.00000000
PG01  22330.548861  14643.866540   1323.499814    205.760261  6  7  8 121       
PG02 -23811.229246 -10676.055727  -3567.310561   -616.450031  7  8  6 126       
PG03  12696.640118  11762.628001  20058.420090   -354.482413  7  6  6 120       
PG04  20635.173015   3402.563181  16447.446194    -13.643485  8  5  7 120       
PG05  -5961.168515 -24048.824611  -9571.026046   -118.342751  8  8  6  83       
PG06   7557.905102 -12546.035896  22221.117308    578.819848  7  6  5  94       
PG07  22720.089140   4217.509024 -13077.090516    228.915355  7  8  6  99       
PG08  10676.988452  11469.479365 -21547.882156   -111.546736  9  6  8 113       
PG09  24592.726606  -6444.506227   7695.856743   -206.288682  9  6  7 103       
PG10 -11177.773291  18906.087595 -14532.806668    -27.348826  4  4  5 114       
PG11  -6039.720543 -19427.905547  17103.025061   -121.841547  8  5  6  88       
PG12 -11180.430613 -14491.862815  18999.972745   -347.987758  8  6  4  93       
PG13  -2120.999660 -15095.748908 -21911.681733    486.015864 15 11 11 132       
PG14  13357.180170 -16247.428069 -16133.611900    -11.560125 10  8  6  93       
PG15 -12487.071577 -10712.255143 -21335.793745     18.992130  9  6  7 101       
PG16   1404.751854  25170.043026  -7869.917914   -517.003082  9  5  5 107       
PG17  22123.575501 -13606.342617   6235.311065    703.821882  9  7  5  89       
PG18 -20645.662591   -617.762426 -16776.927102   -167.246453  9  7  7 124       
PG19  15262.663028 -15859.652159  14431.270133    286.151515  7  7  9  93       
PG20  -1168.705790 -26589.213309   1806.858855    446.818227  9  7  8  91       
PG21  20247.430602  16450.772130  -6350.801842    154.262983  8  4  7 103       
PG22 -11450.776741  17145.650527  17088.160539    439.593212  9  9 10 109       
PG23 -14595.991822   7337.125143 -20906.114869      9.102794  6  7  8 127       
PG24 -21813.102669 -15217.016939  -3549.918965    -99.902016  9  8 10  95       
PG25 -14988.414141  -3392.419056  21366.998359    425.336592  7  6  4  84       
PG26  -4838.266739  25135.392592   6270.556085    241.884648  9  5  5 110       
PG27  -1352.664561  16584.862103 -20843.220704     87.627052  9  4  6 122       
PG28  -9310.151319  12046.932980  21731.518877     34.619202  5  9  5 112       
PG29 -24283.244192   1827.969238  10646.758884   -589.423435  8  7  8 107       
PG30  15310.880395  -7575.466911 -20296.726118   -528.036040  8  7  6  86       
PG31  -5783.668247  14422.378512  21331.552584   -210.891378 10  7  8 116       
PG32 -19519.201552  15991.550713   8125.557470   -415.007541  8  6  4  96       
*  2023  3  6  0 15  0.00000000
PG01  22268.449816  14777.422288  -1567.595275    205.756685  6  7  9 121       
PG02 -23969.185460 -11050.611949   -697.644080   -616.447806  6  8  6  97       
PG03  12511.183339  13991.753263  18717.212040   -354.477314  7  5  6 116       
PG04  18918.356947   4389.901455  18177.487655    -13.635858  8  5  7 116       
PG05  -5732.916545 -24975.004047  -6913.942154   -118.344594  9  8  5  87       
PG06   9672.555731 -11183.323602  22136.773421    578.822950  7  7  4 114       
PG07  23794.115880   5156.651748 -10740.835064    228.908433  7  8  6 110       
PG08   8528.148800  12676.205194 -21793.719388   -111.549005  9  6  7 114       
PG09  23802.102873  -5730.256689  10282.531686   -206.282009  8  6  7 110       
PG10 -11277.057855  17084.111878 -16573.366365    -27.349900  4  4  5 123       
PG11  -4289.550570 -18358.872423  18732.716883   -121.851479  8  4  6  75       
PG12 -10812.934710 -16597.996299  17458.039349   -347.992131  8  6  4  99       
PG13    191.750739 -15881.617696 -21431.952388    486.021071 14 11 10 117       
PG14  13397.630024 -14284.498421 -17875.179248    -11.551327 10  8  6 105       
PG15 -10570.013516 -12107.505657 -21605.399893     18.995248  8  6  6  78       
PG16   1053.609160  25846.792260  -5108.760920   -517.001291  8  4  5 106       
PG17  22661.305412 -13632.356090   3426.136009    703.823792  8  6  5  88       
PG18 -22068.359372  -1727.135815 -14781.964987   -167.261052 10  7  6 117       
PG19  16786.512735 -16252.542369  12132.603765    286.156347  7  7  9  99       
PG20   -850.073032 -26265.670864   4591.543329    446.816479  9  7  7  91       
PG21  19336.898094  16189.682961  -8979.799022    154.263118  7  4  7 108       
PG22 -13152.983869  17683.299162  15139.447169    439.600284  7  9 10 115       
PG23 -14627.240425   4904.388601 -21597.752500      9.104545  7  7  8 128       
PG24 -21222.153452 -15232.965366  -6254.402515    -99.916000  9  8 10 112       
PG25 -14880.307810  -5876.200528  20930.108673    425.339373  8  6  4  93       
PG26  -5196.601109  24250.216587   8905.470691    241.884748  9  6  4 115       
PG27  -3418.887638  17559.815025 -19730.048249     87.619241  9  4  6 107       
PG28 -11430.550036  10773.081777  21385.743875     34.629657  5  9  5 119       
PG29 -23102.454484   1133.495229  13074.982311   -589.425045  8  7  8 110       
PG30  17169.216155  -6241.406720 -19265.781202   -528.034727  8  7  5 106       
PG31  -7883.276213  13074.603536  21564.407026   -210.892245 10  8  8 117       
PG32 -20309.589776  16122.176122   5402.726458   -415.017530  8  5  4  95       
*  2023  3  6  0 30  0.00000000
PG01  21934.490083  14751.908190  -4432.370045    205.753068  6  6  9 122       
PG02 -23849.241042 -11276.402630   2184.307834   -616.445260  5  8  6 107       
PG03  12444.820178  16055.126771  17051.984604   -354.472153  7  5  6 109       
PG04  17099.819391   5553.184780  19596.148523    -13.628226  7  5  7 112       
PG05  -5532.641036 -25605.467215  -4137.619241   -118.345841  9  7  5 107       
PG06  11833.396823  -9958.367150  21674.119543    578.826002  6  7  4 107       
PG07  24673.486809   5901.281572  -8220.718312    228.901639  7  7  6 100       
PG08   6436.273962  13999.135568 -21666.884091   -111.550673  9  6  7 109       
PG09  22809.900448  -4824.679922  12692.105210   -206.275437  8  6  7 109       
PG10 -11478.825518  15053.580719 -18321.480936    -27.351700  4  4  5 125       
PG11  -2343.959729 -17296.029991  20040.684010   -121.861408  7  4  6  79       
PG12 -10567.396173 -18524.794310  15610.335851   -347.996099  9  5  5  89       
PG13   2392.509415 -16762.373224 -20588.208115    486.026326 14 10  9 118       
PG14  13533.200199 -12147.223548 -19307.591048    -11.542528 10  8  6 104       
PG15  -8713.657375 -13602.657360 -21518.227778     18.998430  8  6  6  78       
PG16    757.611288  26222.055656  -2257.778866   -516.999654  8  4  5 112       
PG17  22915.206735 -13536.941801    558.735371    703.825527  8  6  4  70       
PG18 -23340.935721  -2637.233964 -12534.250452   -167.275631 10  7  6 102       
PG19  18036.292759 -16610.112936   9619.554077    286.160702  8  7  8  92       
PG20   -459.242281 -25655.058425   7298.235609    446.814249  9  6  7  96       
PG21  18145.595283  15863.881615 -11457.780540    154.263245  6  4  7 102       
PG22 -14619.852665  18206.633153  12935.360593    439.606756  7  9 10 118       
PG23 -14792.016674   2420.958198 -21917.001835      9.106279  7  7  8 127       
PG24 -20364.907961 -15155.852538  -8854.834717    -99.929982  9  8  9 108       
PG25 -14895.253312  -8287.676670  20124.171060    425.342153  8  5  4  83       
PG26  -5619.844467  23092.853699  11383.447011    241.884979  9  6  3 116       
PG27  -5310.864439  18570.382450 -18280.150650     87.611454  9  4  6 108       
PG28 -13560.896676   9638.811376  20670.913452     34.640058  6  9  4  93       
PG29 -21726.710375    256.370155  15278.426100   -589.426800  8  7  7 117       
PG30  18970.156102  -5067.027461 -17902.929814   -528.033346  7  7  4 111       
PG31 -10048.960343  11834.594344  21420.371026   -210.893068 10  8  7 115       
PG32 -20825.515548  16127.911907   2586.159922   -415.027537  8  4  4 102       
EOF
